{
  "norad_id": 67124,
  "name": "STARLINK-36195",
  "history": [
    {
      "epoch": "2026-04-13T00:43:52.163040Z",
      "apogee_km": 483.99800112881985,
      "perigee_km": 482.07261895517604,
      "latitude_deg": 9.401608128696128e-06,
      "longitude_deg": 122.3946672458481,
      "height_km": 482.80156957605436,
      "semi_major_axis_km": 6861.172310041998,
      "eccentricity": 0.00014031,
      "inclination_deg": 43.0026,
      "raan_deg": 334.5891,
      "arg_perigee_deg": 270.6389,
      "mean_anomaly_deg": 89.4302,
      "mean_motion_rev_day": 15.27584604
    },
    {
      "epoch": "2026-04-14T08:06:59.768928Z",
      "apogee_km": 484.2429174087647,
      "perigee_km": 481.81365322784495,
      "latitude_deg": 5.531956469941792e-06,
      "longitude_deg": 2.9386185319938516,
      "height_km": 482.8530693957553,
      "semi_major_axis_km": 6861.165285318305,
      "eccentricity": 0.00017703,
      "inclination_deg": 43.0011,
      "raan_deg": 327.2037,
      "arg_perigee_deg": 267.7507,
      "mean_anomaly_deg": 92.3142,
      "mean_motion_rev_day": 15.2758695
    },
    {
      "epoch": "2026-04-14T23:48:33.621984Z",
      "apogee_km": 483.70900314770734,
      "perigee_km": 482.32003163452737,
      "latitude_deg": -6.986426365794031e-06,
      "longitude_deg": 123.21017396192224,
      "height_km": 482.85384959157193,
      "semi_major_axis_km": 6861.1515173911175,
      "eccentricity": 0.00010122,
      "inclination_deg": 43.0001,
      "raan_deg": 323.5108,
      "arg_perigee_deg": 264.7983,
      "mean_anomaly_deg": 95.2753,
      "mean_motion_rev_day": 15.27591548
    },
    {
      "epoch": "2026-04-16T15:02:28.237344Z",
      "apogee_km": 483.9443015729057,
      "perigee_km": 482.1260909408975,
      "latitude_deg": 5.473295885453481e-06,
      "longitude_deg": -116.11276787074007,
      "height_km": 482.9217229562482,
      "semi_major_axis_km": 6861.172196256901,
      "eccentricity": 0.0001325,
      "inclination_deg": 43.0016,
      "raan_deg": 314.2766,
      "arg_perigee_deg": 263.0672,
      "mean_anomaly_deg": 97.0029,
      "mean_motion_rev_day": 15.27584642
    },
    {
      "epoch": "2026-04-17T22:25:35.883840Z",
      "apogee_km": 483.9599755391282,
      "perigee_km": 482.0185512516382,
      "latitude_deg": 2.872220780934621e-05,
      "longitude_deg": 124.43244337474243,
      "height_km": 482.73917220662565,
      "semi_major_axis_km": 6861.126263395383,
      "eccentricity": 0.00014148,
      "inclination_deg": 43.0028,
      "raan_deg": 306.8926,
      "arg_perigee_deg": 271.6007,
      "mean_anomaly_deg": 88.4683,
      "mean_motion_rev_day": 15.27599982
    },
    {
      "epoch": "2026-04-18T06:16:23.166336Z",
      "apogee_km": 483.8232286309185,
      "perigee_km": 482.2579195791632,
      "latitude_deg": 3.735771400426577e-05,
      "longitude_deg": 4.564599298313295,
      "height_km": 482.89044385073066,
      "semi_major_axis_km": 6861.177574105041,
      "eccentricity": 0.00011407,
      "inclination_deg": 42.9988,
      "raan_deg": 305.044,
      "arg_perigee_deg": 264.6084,
      "mean_anomaly_deg": 95.4638,
      "mean_motion_rev_day": 15.27582846
    },
    {
      "epoch": "2026-04-19T13:39:30.834432Z",
      "apogee_km": 483.32491470415516,
      "perigee_km": 482.70192224615766,
      "latitude_deg": -5.024019077655732e-05,
      "longitude_deg": -114.8917004253375,
      "height_km": 482.85471717168974,
      "semi_major_axis_km": 6861.150418475156,
      "eccentricity": 4.54e-05,
      "inclination_deg": 42.9985,
      "raan_deg": 297.6587,
      "arg_perigee_deg": 257.8384,
      "mean_anomaly_deg": 102.2416,
      "mean_motion_rev_day": 15.27591915
    },
    {
      "epoch": "2026-04-20T05:21:04.516416Z",
      "apogee_km": 484.27355997131417,
      "perigee_km": 481.79667683657044,
      "latitude_deg": 3.931574433020538e-05,
      "longitude_deg": 5.380076587980204,
      "height_km": 482.96502460215305,
      "semi_major_axis_km": 6861.1721184039425,
      "eccentricity": 0.0001805,
      "inclination_deg": 43.0041,
      "raan_deg": 293.9652,
      "arg_perigee_deg": 262.9286,
      "mean_anomaly_deg": 97.1361,
      "mean_motion_rev_day": 15.27584668
    },
    {
      "epoch": "2026-04-21T20:35:00.081312Z",
      "apogee_km": 484.16293056898576,
      "perigee_km": 481.7697777190615,
      "latitude_deg": 4.4831640913767396e-05,
      "longitude_deg": 126.0564529612474,
      "height_km": 481.8579692273532,
      "semi_major_axis_km": 6861.103354144024,
      "eccentricity": 0.0001744,
      "inclination_deg": 43.0,
      "raan_deg": 284.7343,
      "arg_perigee_deg": 42.4714,
      "mean_anomaly_deg": 317.6273,
      "mean_motion_rev_day": 15.27607633
    },
    {
      "epoch": "2026-04-22T18:33:10.581696Z",
      "apogee_km": 483.21764052785693,
      "perigee_km": 482.77990006571235,
      "latitude_deg": 1.3454222867534312e-05,
      "longitude_deg": 150.43910691740956,
      "height_km": 482.9916220822051,
      "semi_major_axis_km": 6861.135770296784,
      "eccentricity": 3.19e-05,
      "inclination_deg": 42.9979,
      "raan_deg": 279.563,
      "arg_perigee_deg": 185.983,
      "mean_anomaly_deg": 174.1018,
      "mean_motion_rev_day": 15.27596807
    },
    {
      "epoch": "2026-04-22T20:07:19.850880Z",
      "apogee_km": 484.424354674753,
      "perigee_km": 481.62225680588926,
      "latitude_deg": 1.3459738995462469e-05,
      "longitude_deg": 126.47053870895313,
      "height_km": 483.4073443786546,
      "semi_major_axis_km": 6861.160305740321,
      "eccentricity": 0.0002042,
      "inclination_deg": 42.997,
      "raan_deg": 279.1975,
      "arg_perigee_deg": 244.3077,
      "mean_anomaly_deg": 115.7564,
      "mean_motion_rev_day": 15.27588613
    }
  ]
}